OBJECT_NAME,OBJECT_ID,EPOCH,MEAN_MOTION,ECCENTRICITY,INCLINATION,RA_OF_ASC_NODE,ARG_OF_PERICENTER,MEAN_ANOMALY,EPHEMERIS_TYPE,CLASSIFICATION_TYPE,NORAD_CAT_ID,ELEMENT_SET_NO,REV_AT_EPOCH,BSTAR,MEAN_MOTION_DOT,MEAN_MOTION_DDOT
STARLINK-5411,2022-177AX,2024-08-14T15:18:41.707872,15.02547742,.0001161,43.0073,348.7182,278.4906,81.5804,0,U,54865,999,9105,.47652E-3,.6241E-4,0
STARLINK-5398,2022-177AY,2024-08-14T08:19:02.823744,15.02499816,.0002893,43.0076,349.9659,278.4469,81.6045,0,U,54866,999,9101,.37185E-3,.4818E-4,0
STARLINK-5396,2022-177AZ,2024-08-14T14:59:31.912224,15.02534917,.000159,43.0052,348.6168,269.1741,90.8919,0,U,54867,999,9105,.44395E-3,.5798E-4,0
STARLINK-5379,2022-177BA,2024-08-14T14:35:32.762112,15.02528397,.0001484,42.9987,348.4817,208.9636,151.1124,0,U,54868,999,9105,.44176E-3,.5768E-4,0
STARLINK-5402,2022-177BB,2024-08-14T14:49:55.915392,15.02538469,.0001436,43.0028,348.5637,250.6889,109.3798,0,U,54869,999,9105,.71242E-3,.9434E-4,0
STARLINK-5401,2022-177BC,2024-08-14T14:38:43.812384,15.02537849,.0001567,43.0042,348.5029,264.0825,95.9839,0,U,54870,999,9105,.12886E-3,.1537E-4,0
STARLINK-5397,2022-177BD,2024-08-14T14:51:32.872608,15.02596713,.0002108,43.0058,348.5761,278.7654,81.2950,0,U,54871,999,9105,.45072E-2,.61316E-3,0
STARLINK-5390,2022-177BE,2024-08-14T14:27:33.966144,15.02525958,.0000933,43.0000,348.4720,233.6880,126.3876,0,U,54872,999,9105,.20082E-3,.251E-4,0
STARLINK-5091,2022-177BF,2024-08-14T08:07:50.988576,15.02493489,.0002799,43.0040,349.9057,260.6666,99.3860,0,U,54873,999,9101,-.49833E-3,-.6922E-4,0
SHIYAN 10-02 (SY-10 02),2022-178A,2024-08-13T05:22:40.841184,2.00646924,.7116823,63.7884,42.5192,269.2230,16.3168,0,U,54878,999,305,0,.797E-5,0
EROS C3,2022-179A,2024-08-13T16:07:32.902176,15.30540503,.0009064,139.3487,105.7479,180.2749,179.8060,0,U,54880,999,9075,.87834E-3,.27053E-3,0
STAR VIBE,2023-001A,2024-08-13T19:10:25.022208,15.21194991,.0008187,97.4195,283.6594,2.6160,357.5117,0,U,55009,999,8926,.83231E-3,.18539E-3,0
MENUT,2023-001B,2024-08-13T20:07:58.881216,15.20948323,.0008652,97.4264,284.2564,3.7956,356.3344,0,U,55010,999,8928,.67017E-3,.14801E-3,0
BRO-8,2023-001C,2024-08-13T19:02:07.876608,15.20234136,.0009427,97.4264,283.9795,3.5502,356.5799,0,U,55011,999,8925,.63339E-3,.13697E-3,0
CONNECTA T1.2,2023-001D,2024-08-14T03:54:39.333600,15.24003056,.000913,97.4271,285.7211,354.2138,5.8992,0,U,55012,999,8939,.91355E-3,.22128E-3,0
BIRKELAND,2023-001G,2024-08-13T19:43:42.942720,15.23494074,.0008291,97.4280,285.8004,353.0704,7.0417,0,U,55015,999,8937,.58194E-3,.13841E-3,0
KSF3-C,2023-001K,2024-08-13T20:31:39.902880,15.38369293,.0005543,97.4170,289.3212,323.2665,36.8200,0,U,55018,999,8964,.18782E-2,.71578E-3,0
KSF3-B,2023-001L,2024-08-13T20:13:50.201760,15.29878049,.0007574,97.4246,288.3019,343.0024,17.0962,0,U,55019,999,8955,.93172E-3,.26968E-3,0
FLOCK 4Y-24,2023-001M,2024-08-14T10:58:22.759968,15.31211358,.0007361,97.4208,289.1906,328.5335,31.5465,0,U,55020,999,8968,.1437E-2,.43477E-3,0
FLOCK 4Y-32,2023-001N,2024-08-14T10:31:29.366976,15.31690763,.0007357,97.4191,289.3048,322.1061,37.9662,0,U,55021,999,8969,.14815E-2,.45511E-3,0
FLOCK 4Y-22,2023-001P,2024-08-14T02:56:27.665088,15.31168426,.000753,97.4194,288.8680,319.0837,40.9838,0,U,55022,999,8963,.12342E-2,.37252E-3,0
FLOCK 4Y-18,2023-001Q,2024-08-14T03:23:14.830368,15.31379414,.0007571,97.4241,289.2416,324.2279,35.8454,0,U,55023,999,8964,.12413E-2,.37715E-3,0
FLOCK 4Y-14,2023-001R,2024-08-14T03:11:07.205856,15.31204907,.0007574,97.4209,288.9942,331.4796,28.6029,0,U,55024,999,8963,.12303E-2,.37176E-3,0
FLOCK 4Y-30,2023-001S,2024-08-14T02:53:36.873888,15.31363159,.0007658,97.4243,289.3006,327.1029,32.9735,0,U,55025,999,8964,.10221E-2,.30999E-3,0
FLOCK 4Y-25,2023-001U,2024-08-14T10:20:44.983680,15.31186932,.0007507,97.4171,289.0814,324.6394,35.4348,0,U,55027,999,8968,.16621E-2,.50308E-3,0
FLOCK 4Y-5,2023-001V,2024-08-14T14:37:35.363712,15.31139280,.0008049,97.4218,289.5026,316.8878,43.1731,0,U,55028,999,8971,.10362E-2,.31214E-3,0
FLOCK 4Y-10,2023-001W,2024-08-14T03:32:00.044736,15.31191357,.000775,97.4220,289.1783,322.2448,37.8248,0,U,55029,999,8964,.1278E-2,.38613E-3,0
FLOCK 4Y-29,2023-001X,2024-08-14T03:16:26.027904,15.33271102,.0007927,97.4202,289.5258,313.2176,46.8404,0,U,55030,999,8968,.13854E-2,.4471E-3,0
FLOCK 4Y-17,2023-001Y,2024-08-14T10:17:53.229120,15.31140540,.0007512,97.4231,289.4777,326.5037,33.5728,0,U,55031,999,8968,.14156E-2,.42732E-3,0
