STARLINK-5411           
1 54865U 22177AX  24227.63798273  .00006241  00000+0  47652-3 0  9998
2 54865  43.0073 348.7182 0001161 278.4906  81.5804 15.02547742 89959
STARLINK-5398           
1 54866U 22177AY  24227.34656046  .00004818  00000+0  37185-3 0  9996
2 54866  43.0076 349.9659 0002893 278.4469  81.6045 15.02499816 91018
STARLINK-5396           
1 54867U 22177AZ  24227.62467491  .00005798  00000+0  44395-3 0  9991
2 54867  43.0052 348.6168 0001590 269.1741  90.8919 15.02534917 89951
STARLINK-5379           
1 54868U 22177BA  24227.60801808  .00005768  00000+0  44176-3 0  9998
2 54868  42.9987 348.4817 0001484 208.9636 151.1124 15.02528397 89945
STARLINK-5402           
1 54869U 22177BB  24227.61800828  .00009434  00000+0  71242-3 0  9999
2 54869  43.0028 348.5637 0001436 250.6889 109.3798 15.02538469 89950
STARLINK-5401           
1 54870U 22177BC  24227.61022931  .00001537  00000+0  12886-3 0  9997
2 54870  43.0042 348.5029 0001567 264.0825  95.9839 15.02537849 89954
STARLINK-5397           
1 54871U 22177BD  24227.61913047  .00061316  00000+0  45072-2 0  9998
2 54871  43.0058 348.5761 0002108 278.7654  81.2950 15.02596713 91050
STARLINK-5390           
1 54872U 22177BE  24227.60247646  .00002510  00000+0  20082-3 0  9999
2 54872  43.0000 348.4720 0000933 233.6880 126.3876 15.02525958 89954
STARLINK-5091           
1 54873U 22177BF  24227.33878459 -.00006922  00000+0 -49833-3 0  9990
2 54873  43.0040 349.9057 0002799 260.6666  99.3860 15.02493489 91017
SHIYAN 10-02 (SY-10 02) 
1 54878U 22178A   24226.22408381  .00000797  00000+0  00000+0 0  9997
2 54878  63.7884  42.5192 7116823 269.2230  16.3168  2.00646924  3051
EROS C3                 
1 54880U 22179A   24226.67190859  .00027053  00000+0  87834-3 0  9996
2 54880 139.3487 105.7479 0009064 180.2749 179.8060 15.30540503 90753
STAR VIBE               
1 55009U 23001A   24226.79890072  .00018539  00000+0  83231-3 0  9998
2 55009  97.4195 283.6594 0008187   2.6160 357.5117 15.21194991 89268
MENUT                   
1 55010U 23001B   24226.83887594  .00014801  00000+0  67017-3 0  9992
2 55010  97.4264 284.2564 0008652   3.7956 356.3344 15.20948323 89289
BRO-8                   
1 55011U 23001C   24226.79314672  .00013697  00000+0  63339-3 0  9995
2 55011  97.4264 283.9795 0009427   3.5502 356.5799 15.20234136 89251
CONNECTA T1.2           
1 55012U 23001D   24227.16295525  .00022128  00000+0  91355-3 0  9991
2 55012  97.4271 285.7211 0009130 354.2138   5.8992 15.24003056 89398
BIRKELAND               
1 55015U 23001G   24226.82202480  .00013841  00000+0  58194-3 0  9990
2 55015  97.4280 285.8004 0008291 353.0704   7.0417 15.23494074 89372
KSF3-C                  
1 55018U 23001K   24226.85532295  .00071578  00000+0  18782-2 0  9995
2 55018  97.4170 289.3212 0005543 323.2665  36.8200 15.38369293 89645
KSF3-B                  
1 55019U 23001L   24226.84294215  .00026968  00000+0  93172-3 0  9992
2 55019  97.4246 288.3019 0007574 343.0024  17.0962 15.29878049 89559
FLOCK 4Y-24             
1 55020U 23001M   24227.45720787  .00043477  00000+0  14370-2 0  9996
2 55020  97.4208 289.1906 0007361 328.5335  31.5465 15.31211358 89680
FLOCK 4Y-32             
1 55021U 23001N   24227.43853434  .00045511  00000+0  14815-2 0  9996
2 55021  97.4191 289.3048 0007357 322.1061  37.9662 15.31690763 89693
FLOCK 4Y-22             
1 55022U 23001P   24227.12254242  .00037252  00000+0  12342-2 0  9991
2 55022  97.4194 288.8680 0007530 319.0837  40.9838 15.31168426 89631
FLOCK 4Y-18             
1 55023U 23001Q   24227.14114387  .00037715  00000+0  12413-2 0  9992
2 55023  97.4241 289.2416 0007571 324.2279  35.8454 15.31379414 89649
FLOCK 4Y-14             
1 55024U 23001R   24227.13272229  .00037176  00000+0  12303-2 0  9991
2 55024  97.4209 288.9942 0007574 331.4796  28.6029 15.31204907 89632
FLOCK 4Y-30             
1 55025U 23001S   24227.12056567  .00030999  00000+0  10221-2 0  9999
2 55025  97.4243 289.3006 0007658 327.1029  32.9735 15.31363159 89649
FLOCK 4Y-25             
1 55027U 23001U   24227.43107620  .00050308  00000+0  16621-2 0  9998
2 55027  97.4171 289.0814 0007507 324.6394  35.4348 15.31186932 89689
FLOCK 4Y-5              
1 55028U 23001V   24227.60943708  .00031214  00000+0  10362-2 0  9994
2 55028  97.4218 289.5026 0008049 316.8878  43.1731 15.31139280 89714
FLOCK 4Y-10             
1 55029U 23001W   24227.14722274  .00038613  00000+0  12780-2 0  9993
2 55029  97.4220 289.1783 0007750 322.2448  37.8248 15.31191357 89644
FLOCK 4Y-29             
1 55030U 23001X   24227.13641236  .00044710  00000+0  13854-2 0  9990
2 55030  97.4202 289.5258 0007927 313.2176  46.8404 15.33271102 89688
FLOCK 4Y-17             
1 55031U 23001Y   24227.42908830  .00042732  00000+0  14156-2 0  9997
2 55031  97.4231 289.4777 0007512 326.5037  33.5728 15.31140540 89680
